INTELSAT 907 (IS-907)   
1 27683U 03007A   17344.85471385 -.00000210  00000-0  00000-0 0  9990
2 27683   0.0128 275.7691 0002963 347.9646  96.2378  1.00272829 54268
